KUIPER-00165            
1 65778U 25217S   25332.16671295 -.00959088  00000+0 -31140-1 0  9992
2 65778  51.8708 134.8603 0004059 292.5411  37.9515 15.34291850  3990
KUIPER-00166            
1 65779U 25217T   25332.15831580  .00040631  00000+0  10702-2 0  9992
2 65779  51.8693 134.7658 0002996 267.8278  92.2366 15.38123838  9805
KUIPER-00167            
1 65780U 25217U   25332.16671295 -.00193231  00000+0 -11453-1 0  9990
2 65780  51.8795 137.4504 0011192 291.8591 169.5819 15.11772023  3906
KUIPER-00168            
1 65781U 25217V   25331.73970428  .00049715  00000+0  12770-2 0  9992
2 65781  51.8703 136.4711 0002425 196.4176 163.6733 15.38807430  9741
KUIPER-00169            
1 65782U 25217W   25332.15833983  .00036629  00000+0  96039-3 0  9995
2 65782  51.8699 134.7677 0002772 277.8868  82.1804 15.38315380  9804
KUIPER-00170            
1 65783U 25217X   25332.16671295 -.00030564  00000+0 -10287-2 0  9997
2 65783  51.8682 135.3838 0007011 305.0807 137.8141 15.29992004  5847
KUIPER-00171            
1 65784U 25217Y   25331.75679968  .00138140  00000+0  12689-2 0  9992
2 65784  51.8578 132.1083 0008065 301.5976  58.4236 15.66722517  9801
KUIPER-00172            
1 65785U 25217Z   25331.75208954  .00063874  00000+0  16483-2 0  9993
2 65785  51.8708 136.5509 0002887 269.7433  90.3223 15.38552988  9743
KUIPER-00173            
1 65786U 25217AA  25332.15176898  .00033427  00000+0  87586-3 0  9994
2 65786  51.8686 134.7223 0002839 260.6432  99.4234 15.38379417  9801
KUIPER-00174            
1 65787U 25217AB  25331.74607163  .00039219  00000+0  10246-2 0  9996
2 65787  51.8709 136.5090 0003465 227.2657 132.8039 15.38392256  9748
KUIPER-00176            
1 65788U 25217AC  25332.16671295 -.00876061  00000+0 -46686-1 0  9993
2 65788  51.8793 136.1869 0003029 263.9141 110.7847 15.17286449  5609
KUIPER-00101            
1 65947U 25228A   25332.16671295 -.00976062  00000+0 -56669-1 0  9996
2 65947  51.8921  92.5785 0003743 317.6805  74.2716 15.14585664  5672
KUIPER-00113            
1 65948U 25228B   25332.16671295 -.00970547  00000+0 -43761-1 0  9998
2 65948  51.8808  91.1115 0006384 297.0952  41.7740 15.23221666  3771
KUIPER-00117            
1 65949U 25228C   25332.16671295 -.00578402  00000+0 -29490-1 0  9996
2 65949  51.8879  91.7496 0008475 309.6652  68.5851 15.18544596  5910
KUIPER-00121            
1 65950U 25228D   25330.51621356 -.00118312  00000+0 -34546-2 0  9997
2 65950  51.8791  98.8214 0007520 319.3514  40.6910 15.35148871  7921
KUIPER-00122            
1 65951U 25228E   25332.16671295 -.01067313  00000+0 -77950-1 0  9998
2 65951  51.8889  93.7652 0006701 339.2545 198.1159 15.06086148  4551
KUIPER-00123            
1 65952U 25228F   25332.16671295  .00042781  00000+0  30397-2 0  9993
2 65952  51.8913  93.7779 0006545 317.7410 119.2174 15.04264485  5099
KUIPER-00124            
1 65953U 25228G   25332.16671295  .00075285  00000+0  24240-2 0  9999
2 65953  51.8793  90.9860 0004519 332.2246  98.6143 15.31524071  5652
KUIPER-00125            
1 65954U 25228H   25331.54973552  .00043765  00000+0  12446-2 0  9995
2 65954  51.8770  93.7368 0006301 315.1731  44.8745 15.35698259  8087
KUIPER-00126            
1 65955U 25228J   25332.16671295 -.01197998  00000+0 -72742-1 0  9999
2 65955  51.8907  92.6523 0006899 323.5495 322.9661 15.13100298  5916
KUIPER-00127            
1 65956U 25228K   25332.16671295 -.00712899  00000+0 -34814-1 0  9990
2 65956  51.8888  91.6934 0004187 313.9171 146.0146 15.20173682  5741
KUIPER-00128            
1 65957U 25228L   25332.16671295 -.00494505  00000+0 -16714-1 0  9991
2 65957  51.8797  90.8061 0005900 316.0723 194.0382 15.32177976  5652
KUIPER-00129            
1 65958U 25228M   25332.06729582  .00038210  00000+0  10871-2 0  9998
2 65958  51.8792  91.2179 0006059 300.2041  59.8345 15.35747246  8169
KUIPER-00130            
1 65959U 25228N   25331.62109544  .00021965  00000+0  64310-3 0  9997
2 65959  51.8780  93.4662 0005619 318.3054  41.7503 15.35147601  8090
KUIPER-00134            
1 65960U 25228P   25331.62252505  .00043475  00000+0  12532-2 0  9993
2 65960  51.8784  93.4747 0006343 316.4420  43.6065 15.35277396  8090
KUIPER-00135            
1 65961U 25228Q   25331.55791770  .00038935  00000+0  11302-2 0  9997
2 65961  51.8787  93.8016 0004481 314.5641  45.4978 15.35115781  8083
KUIPER-00136            
1 65962U 25228R   25332.06576258  .00037452  00000+0  10655-2 0  9990
2 65962  51.8796  91.2077 0005838 304.2507  55.7926 15.35760072  8162
KUIPER-00137            
1 65963U 25228S   25331.68791315  .00045461  00000+0  13180-2 0  9996
2 65963  51.8792  93.1743 0005114 314.0364  46.0200 15.35081044  8104
KUIPER-00138            
1 65964U 25228T   25331.62673015  .00036107  00000+0  10491-2 0  9996
2 65964  51.8774  93.5041 0006838 324.0047  36.0477 15.35110411  8097
KUIPER-00140            
1 65965U 25228U   25331.63021574  .00029087  00000+0  86165-3 0  9996
2 65965  51.8790  93.5323 0006967 320.3779  39.6697 15.34609534  8094
KUIPER-00141            
1 65966U 25228V   25331.61384980  .00029414  00000+0  84206-3 0  9996
2 65966  51.8785  93.4198 0005753 309.7829  50.2650 15.35685242  8096
KUIPER-00146            
1 65967U 25228W   25331.61971812  .00020559  00000+0  60246-3 0  9992
2 65967  51.8793  93.4680 0006321 311.4613  48.5830 15.35160200  8097
KUIPER-00149            
1 65968U 25228X   25332.06558091  .00044105  00000+0  12501-2 0  9996
2 65968  51.8778  91.2005 0005455 304.8243  55.2230 15.35802536  8162
KUIPER-00154            
1 65969U 25228Y   25332.06750469  .00057763  00000+0  16501-2 0  9998
2 65969  51.8795  91.2136 0006046 306.7207  53.3223 15.35433984  8163
KUIPER-00157            
1 65970U 25228Z   25331.62357741  .00022606  00000+0  66241-3 0  9992
2 65970  51.8786  93.4921 0006492 321.8008  38.2517 15.35099595  8099
